[{"OBJECT_NAME":"SKYSAT-C4","OBJECT_ID":"2016-058B","EPOCH":"2026-03-09T23:30:00.435744","MEAN_MOTION":15.45385344,"ECCENTRICITY":9.71e-5,"INCLINATION":96.9292,"RA_OF_ASC_NODE":95.0711,"ARG_OF_PERICENTER":119.0883,"MEAN_ANOMALY":241.0464,"EPHEMERIS_TYPE":0,"CLASSIFICATION_TYPE":"U","NORAD_CAT_ID":41771,"ELEMENT_SET_NO":999,"REV_AT_EPOCH":53013,"BSTAR":0.00040419396,"MEAN_MOTION_DOT":0.00019246,"MEAN_MOTION_DDOT":0},{"OBJECT_NAME":"STARLINK-2041","OBJECT_ID":"2021-012AP","EPOCH":"2026-03-09T22:00:01.999584","MEAN_MOTION":15.43872381,"ECCENTRICITY":0.00014725,"INCLINATION":53.1608,"RA_OF_ASC_NODE":63.4955,"ARG_OF_PERICENTER":92.1005,"MEAN_ANOMALY":286.7548,"EPHEMERIS_TYPE":0,"CLASSIFICATION_TYPE":"U","NORAD_CAT_ID":47657,"ELEMENT_SET_NO":999,"REV_AT_EPOCH":580,"BSTAR":0.0025069191,"MEAN_MOTION_DOT":0.00116913,"MEAN_MOTION_DDOT":0}]
